     3.03           N: GNSS NAV DATA    M: Mixed            RINEX VERSION / TYPE
RTKCONV demo5 b34f.1                    20230910 134937 UTC PGM / RUN BY / DATE 
format: u-blox UBX                                          COMMENT             
log: C:\Users\oo\Desktop\divers\verniquet\Reseau\verniquet\rCOMMENT             
                                                            END OF HEADER       
G01 2023 09 10 10 00 00  .165855977684D-03 -.102318153949D-11  .000000000000D+00
      .910000000000D+02  .693437500000D+02  .410231373498D-08  .151036773939D+01
      .349618494511D-05  .128680163762D-01  .441819429398D-05  .515363663673D+04
      .360000000000D+05 -.361353158951D-06  .393009344680D+00 -.428408384323D-07
      .990479813986D+00  .311875000000D+03  .992966267088D+00 -.805890711440D-08
      .202508435289D-09  .100000000000D+01  .227900000000D+04  .000000000000D+00
      .280000000000D+01  .630000000000D+02  .512227416039D-08  .910000000000D+02
      .330360000000D+05  .400000000000D+01
G03 2023 09 10 10 00 00 -.142949167639D-03  .203499439522D-10  .000000000000D+00
      .280000000000D+02 -.755000000000D+02  .428517849488D-08  .309435135981D+00
     -.387057662010D-05  .512915721629D-02  .360980629921D-05  .515360422516D+04
      .360000000000D+05 -.353902578354D-07  .142277911818D+01  .707805156708D-07
      .980200491365D+00  .318531250000D+03  .110546389057D+01 -.819248410699D-08
     -.262153776900D-09  .100000000000D+01  .227900000000D+04  .000000000000D+00
      .200000000000D+01  .000000000000D+00  .186264514923D-08  .280000000000D+02
      .330360000000D+05  .400000000000D+01
G02 2023 09 10 10 00 00 -.555637292564D-03  .443378667114D-11  .000000000000D+00
      .830000000000D+02  .855312500000D+02  .438553981819D-08 -.207696777430D+01
      .480376183987D-05  .159789018799D-01  .397488474846D-05  .515375591660D+04
      .360000000000D+05  .100582838058D-06  .292123513488D+00  .260770320892D-06
      .967807771456D+00  .304468750000D+03 -.134854559167D+01 -.793247327650D-08
      .261082303697D-09  .100000000000D+01  .227900000000D+04  .000000000000D+00
      .200000000000D+01  .000000000000D+00 -.176951289177D-07  .830000000000D+02
      .330360000000D+05  .400000000000D+01
G21 2023 09 10 10 00 00  .149189494550D-03 -.795807864051D-12  .000000000000D+00
      .119000000000D+03  .924687500000D+02  .438589697593D-08 -.260141048490D+01
      .514835119247D-05  .247796475887D-01  .422075390816D-05  .515358258247D+04
      .360000000000D+05 -.160187482834D-06  .286481892801D+00  .324100255966D-06
      .962096862579D+00  .299656250000D+03 -.709745920886D+00 -.779711049523D-08
      .245724521127D-09  .100000000000D+01  .227900000000D+04  .000000000000D+00
      .200000000000D+01  .000000000000D+00 -.102445483208D-07  .119000000000D+03
      .330360000000D+05  .400000000000D+01
G17 2023 09 10 09 59 44  .723643228412D-03  .227373675443D-12  .000000000000D+00
      .940000000000D+02  .704375000000D+02  .407766985132D-08 -.261783293262D+01
      .368803739548D-05  .137102712179D-01  .948272645473D-05  .515358260345D+04
      .359840000000D+05  .108033418655D-06 -.610936055299D+00  .167638063431D-06
      .972879379280D+00  .198000000000D+03 -.140099946738D+01 -.750709841507D-08
     -.642883921553D-10  .100000000000D+01  .227900000000D+04  .000000000000D+00
      .200000000000D+01  .000000000000D+00 -.111758708954D-07  .940000000000D+02
      .330360000000D+05  .400000000000D+01
G19 2023 09 10 10 00 00  .369534362108D-03  .511590769747D-11  .000000000000D+00
      .730000000000D+02  .587500000000D+02  .417445959728D-08 -.521217406340D+00
      .299513339996D-05  .943473074585D-02  .964105129242D-05  .515365014267D+04
      .360000000000D+05 -.521540641785D-07 -.566486427611D+00 -.117346644402D-06
      .972009778349D+00  .200218750000D+03  .240919792570D+01 -.790390065776D-08
     -.432160858377D-10  .100000000000D+01  .227900000000D+04  .000000000000D+00
      .200000000000D+01  .000000000000D+00 -.153668224812D-07  .730000000000D+02
      .330360000000D+05  .400000000000D+01
G04 2023 09 10 10 00 00  .151728745550D-03  .112549969344D-10  .000000000000D+00
      .660000000000D+02 -.759687500000D+02  .419446043040D-08 -.295364589768D+01
     -.397861003876D-05  .253510545008D-02  .102836638689D-04  .515362956810D+04
      .360000000000D+05 -.335276126862D-07  .250350235763D+01  .223517417908D-07
      .963614511349D+00  .181343750000D+03 -.304197516506D+01 -.773210778761D-08
      .853606984729D-10  .100000000000D+01  .227900000000D+04  .000000000000D+00
      .200000000000D+01  .000000000000D+00 -.419095158577D-08  .322000000000D+03
      .330360000000D+05  .400000000000D+01
G32 2023 09 10 10 00 00 -.555554870516D-03 -.613908923697D-11  .000000000000D+00
      .440000000000D+02 -.689062500000D+02  .417195949314D-08 -.195659891716D+01
     -.353343784809D-05  .695859652478D-02  .996887683868D-05  .515357492256D+04
      .360000000000D+05  .707805156708D-07  .245959805167D+01 -.195577740669D-06
      .960523710697D+00  .190375000000D+03 -.222122466171D+01 -.763317509524D-08
      .339299847486D-10  .100000000000D+01  .227900000000D+04  .000000000000D+00
      .200000000000D+01  .000000000000D+00  .465661287308D-09  .440000000000D+02
      .330360000000D+05  .400000000000D+01
G28 2023 09 10 10 00 00 -.786269083619D-05 -.500222085975D-11  .000000000000D+00
      .235000000000D+03  .208750000000D+02  .443089885044D-08 -.559271261516D+00
      .119209289551D-05  .667793327011D-03  .761635601521D-05  .515373872375D+04
      .360000000000D+05 -.186264514923D-07 -.280177941512D+01  .372529029846D-07
      .961783559654D+00  .231750000000D+03  .158023503035D+01 -.790282918456D-08
      .401445293236D-09  .100000000000D+01  .227900000000D+04  .000000000000D+00
      .200000000000D+01  .000000000000D+00 -.977888703346D-08  .235000000000D+03
      .330360000000D+05  .400000000000D+01
G14 2023 09 10 10 00 00  .180568546057D-03  .113686837722D-10  .000000000000D+00
      .110000000000D+03  .190625000000D+01  .503485257896D-08  .634518714594D-01
      .180676579475D-06  .355632207356D-02  .624172389507D-05  .515367106056D+04
      .360000000000D+05  .670552253723D-07 -.169079784228D+01 -.186264514923D-08
      .947446261740D+00  .252531250000D+03 -.294488723012D+01 -.824320050525D-08
     -.201079804352D-09  .100000000000D+01  .227900000000D+04  .000000000000D+00
      .200000000000D+01  .000000000000D+00 -.791624188423D-08  .878000000000D+03
      .330360000000D+05  .400000000000D+01
G08 2023 09 10 10 00 00 -.141516793519D-03 -.193267624127D-11  .000000000000D+00
      .103000000000D+03  .615625000000D+02  .441839832974D-08 -.261761147023D+01
      .303052365780D-05  .860863900743D-02  .970251858234D-05  .515375282097D+04
      .360000000000D+05 -.119209289551D-06 -.701582918465D+00 -.154599547386D-06
      .957168483212D+00  .194750000000D+03  .271062459754D+00 -.779175312922D-08
     -.144648882349D-09  .100000000000D+01  .227900000000D+04  .000000000000D+00
      .200000000000D+01  .000000000000D+00  .512227416039D-08  .103000000000D+03
      .330360000000D+05  .400000000000D+01
G31 2023 09 10 10 00 00 -.223167240620D-03 -.568434188608D-12  .000000000000D+00
      .860000000000D+02  .207812500000D+02  .470591030577D-08 -.301324668411D-01
      .128522515297D-05  .104374020593D-01  .724941492081D-05  .515361524010D+04
      .360000000000D+05  .931322574615D-07 -.274526831460D+01  .143423676491D-06
      .954661922301D+00  .235875000000D+03  .580119352414D+00 -.819355558019D-08
      .386087510666D-09  .100000000000D+01  .227900000000D+04  .000000000000D+00
      .200000000000D+01  .000000000000D+00 -.130385160446D-07  .860000000000D+02
      .330360000000D+05  .400000000000D+01
G22 2023 09 10 10 00 00  .124634243548D-03 -.738964445191D-11  .000000000000D+00
      .650000000000D+02  .690625000000D+01  .456411868529D-08 -.204027699889D+01
      .741332769394D-06  .153426943580D-01  .665523111820D-05  .515360634804D+04
      .360000000000D+05  .372529029846D-08 -.162895904135D+01  .320374965668D-06
      .962996302650D+00  .250687500000D+03 -.119068176234D+01 -.784818405122D-08
     -.241081470582D-09  .100000000000D+01  .227900000000D+04  .000000000000D+00
      .280000000000D+01  .000000000000D+00 -.111758708954D-07  .650000000000D+02
      .330660000000D+05  .400000000000D+01
G09 2023 09 10 10 00 00 -.636372715235D-04  .102318153949D-10  .000000000000D+00
      .570000000000D+02 -.810000000000D+02  .434232373236D-08 -.205577581426D+01
     -.426545739174D-05  .272296310868D-02  .983849167824D-05  .515355248833D+04
      .360000000000D+05  .149011611938D-07  .244599025834D+01  .931322574615D-07
      .956948319893D+00  .187625000000D+03  .194031497999D+01 -.782996900678D-08
      .392873507616D-11  .100000000000D+01  .227900000000D+04  .000000000000D+00
      .200000000000D+01  .000000000000D+00  .931322574615D-09  .570000000000D+02
      .332460000000D+05  .400000000000D+01
G06 2023 09 10 10 00 00  .552762299776D-03 -.659383658785D-11  .000000000000D+00
      .990000000000D+02  .755312500000D+02  .402159608705D-08  .172910515532D+01
      .395998358727D-05  .275105179753D-02  .447221100330D-05  .515374007988D+04
      .360000000000D+05  .186264514923D-08  .384675237896D+00 -.856816768646D-07
      .989657940757D+00  .304812500000D+03 -.804829697553D+00 -.794104506212D-08
      .121433629627D-09  .100000000000D+01  .227900000000D+04  .000000000000D+00
      .200000000000D+01  .000000000000D+00  .372529029846D-08  .990000000000D+02
      .347760000000D+05  .400000000000D+01
